OSCAR 7 (AO-7)          
1 07530U 74089B   22291.22146532 -.00000019  00000+0  16917-3 0  9991
2 07530 101.9207 271.5409 0012162 165.2626 205.8251 12.53657800193097
PHASE 3B (AO-10)        
1 14129U 83058B   22290.65135480  .00000052  00000+0  00000+0 0  9993
2 14129  26.5933  76.1720 6026988 115.6065 317.0895  2.05868673267927
UOSAT 2 (UO-11)         
1 14781U 84021B   22290.51361688  .00001291  00000+0  16153-3 0  9990
2 14781  97.6309 272.4743 0006771 283.6565  76.3895 14.83889913 58142
LUSAT (LO-19)           
1 20442U 90005G   22290.70414463  .00000168  00000+0  78058-4 0  9996
2 20442  98.8106 257.5235 0011924 164.8740 195.2802 14.33099315710612
EYESAT A (AO-27)        
1 22825U 93061C   22290.66567763  .00000089  00000+0  52309-4 0  9998
2 22825  98.8766 324.2275 0009345  59.7458 300.4648 14.30200600515629
ITAMSAT (IO-26)         
1 22826U 93061D   22290.65922257  .00000102  00000+0  56801-4 0  9998
2 22826  98.8711 324.0930 0009713  47.1302 313.0694 14.30550066515887
RADIO ROSTO (RS-15)     
1 23439U 94085A   22290.96663731 -.00000039  00000+0  10000-3 0  9999
2 23439  64.8203 307.4648 0168056 251.6302 106.6281 11.27573030145309
JAS-2 (FO-29)           
1 24278U 96046B   22290.80799307 -.00000025  00000+0  13019-4 0  9991
2 24278  98.5152 297.6541 0349742 325.9580  31.9559 13.53122475292154
TECHSAT 1B (GO-32)      
1 25397U 98043D   22291.13035120  .00000097  00000+0  62335-4 0  9999
2 25397  98.8321 241.9949 0002285 101.4719 258.6716 14.23779568261104
ISS (ZARYA)             
1 25544U 98067A   22291.33650756  .00055030  00000+0  97976-3 0  9994
2 25544  51.6391  86.4728 0005223 350.8251  75.6247 15.49572996364289
PCSAT (NO-44)           
1 26931U 01043C   22290.85643257  .00000158  00000+0  91975-4 0  9992
2 26931  67.0494 102.4461 0005439 260.2144  99.8344 14.30747490 98914
SAUDISAT 1C (SO-50)     
1 27607U 02058C   22290.39722883  .00001422  00000+0  21389-3 0  9998
2 27607  64.5537 288.6868 0081640 271.2451  87.9300 14.76329261 66371
CUTE-1 (CO-55)          
1 27844U 03031E   22291.02816655  .00000335  00000+0  16949-3 0  9993
2 27844  98.6812 296.8798 0010957 105.5471 254.6917 14.22517301  1332
CUBESAT XI-IV (CO-57)   
1 27848U 03031J   22290.95926583  .00000275  00000+0  14375-3 0  9994
2 27848  98.6856 297.3046 0010718 118.8178 241.4077 14.22065252  1123
MOZHAYETS 4 (RS-22)     
1 27939U 03042A   22291.06615224  .00001474  00000+0  26827-3 0  9994
2 27939  98.2105  71.8904 0012828 176.0751 184.0516 14.67545713 19024
CUBESAT XI-V            
1 28895U 05043F   22290.82316425  .00001498  00000+0  29062-3 0  9993
2 28895  98.1235  60.4445 0017682 114.7007 245.6038 14.64575054905327
FALCONSAT-3             
1 30776U 07006E   22290.71750255  .00084532  00000+0  81178-3 0  9992
2 30776  35.4272 173.8487 0004501 286.0310  73.9930 15.65358021868667
CUTE-1.7+APD II (CO-65) 
1 32785U 08021C   22290.67176611  .00002976  00000+0  31338-3 0  9990
2 32785  97.6732 257.7711 0012434 180.6332 179.4872 14.90056814784687
DELFI-C3 (DO-64)        
1 32789U 08021G   22290.53705282  .00015933  00000+0  81214-3 0  9996
2 32789  97.3326 312.5923 0007647 253.1691 106.8704 15.16819156790518
SEEDS II (CO-66)        
1 32791U 08021J   22290.62642614  .00003803  00000+0  36718-3 0  9990
2 32791  97.6271 263.0972 0013891 136.1723 224.0602 14.93352851785423
YUBILEINY (RS-30)       
1 32953U 08025A   22291.19497748  .00000024  00000+0  10000-3 0  9991
2 32953  82.4976 107.6102 0019461 354.3012   5.7844 12.43114073653587
KKS-1 (KISEKI)          
1 33499U 09002H   22290.80186771  .00001107  00000+0  16778-3 0  9992
2 33499  98.1979 174.7650 0007679 287.5596  72.4774 14.76197902738290
SWISSCUBE               
1 35932U 09051B   22291.10317649  .00000831  00000+0  19562-3 0  9991
2 35932  98.5513 150.3824 0008333  37.3442 322.8333 14.57018967693996
BEESAT-1                
1 35933U 09051C   22290.85156357  .00000762  00000+0  18021-3 0  9992
2 35933  98.5448 151.6653 0006714  50.7672 309.4121 14.57015803693995
ITUPSAT1                
1 35935U 09051E   22290.87552170  .00000699  00000+0  16940-3 0  9996
2 35935  98.5548 151.7128 0009035  52.3442 307.8573 14.56113652693698
XIWANG-1 (HOPE-1)       
1 36122U 09072B   22290.78861021  .00000011  00000+0  14094-3 0  9992
2 36122 100.2004 257.7320 0008112  61.8805 298.3128 13.16372991616906
JUGNU                   
1 37839U 11058B   22290.94298542  .00000470  00000+0  10818-3 0  9994
2 37839  19.9597 152.4962 0018896  67.6835 322.5593 14.12819782569594
SRMSAT                  
1 37841U 11058D   22290.57929023  .00000455  00000+0  10457-3 0  9993
2 37841  19.9715 236.7014 0011743 245.2561 295.6666 14.10783440568507
M-CUBED & EXP-1 PRIME   
1 37855U 11061F   22290.48493070  .00011040  00000+0  45783-3 0  9992
2 37855 101.7213 114.5005 0146386  55.9852 305.5171 15.14917470599692
STRAND-1                
1 39090U 13009E   22290.50298516  .00000275  00000+0  11071-3 0  9991
2 39090  98.3976 125.4317 0007880 268.3296  91.6987 14.35346779504904
SOMP                    
1 39134U 13015E   22290.98861209  .00025662  00000+0  80689-3 0  9992
2 39134  64.8618  18.7997 0033823 263.8852  95.8428 15.32360219525986
BEESAT-3                
1 39135U 13015F   22290.76544597  .00020364  00000+0  76444-3 0  9995
2 39135  64.8657  58.7548 0038450 265.9267  93.7468 15.26558838524765
BEESAT-2                
1 39136U 13015G   22290.70081765  .00015751  00000+0  62340-3 0  9997
2 39136  64.8741  67.8964 0023836 292.5557  67.3050 15.25358199525024
ZACUBE-1 (TSHEPISOSAT)  
1 39417U 13066B   22291.13863019  .00003058  00000+0  37373-3 0  9998
2 39417  97.6522 257.2167 0057363   4.1373 356.0304 14.82813793481302
GOMX-1                  
1 39430U 13066Q   22290.96785118  .00002878  00000+0  51564-3 0  9993
2 39430  97.7975 191.1153 0149431  19.0568 341.6141 14.60488868474173
CUBEBUG-2 (LO-74)       
1 39440U 13066AA  22290.85832372  .00002472  00000+0  33661-3 0  9995
2 39440  97.7399 243.3739 0079909  94.2314 266.8034 14.77394529478351
FUNCUBE-1 (AO-73)       
1 39444U 13066AE  22290.86054472  .00004403  00000+0  52072-3 0  9990
2 39444  97.6401 259.3768 0055718 352.5469   7.4912 14.84001146479678
UWE-3                   
1 39446U 13066AG  22290.53310116  .00002866  00000+0  37047-3 0  9992
2 39446  97.7009 249.4348 0069523  52.1566 308.5910 14.79986262478519
SPROUT                  
1 39770U 14029E   22290.88049660  .00015015  00000+0  14616-2 0  9999
2 39770  97.9531  48.7645 0008845  47.3715 312.8229 14.92591617455914
UNISAT-6                
1 40012U 14033C   22290.82857296  .00002057  00000+0  30298-3 0  9998
2 40012  97.6631 112.2977 0058191 121.8509 238.8383 14.75240925448022
DUCHIFAT-1              
1 40021U 14033M   22290.76931984  .00005796  00000+0  55203-3 0  9994
2 40021  98.0259 243.3217 0012338   6.4811 353.6565 14.93736562452955
QB50P1                  
1 40025U 14033R   22290.82264556  .00003591  00000+0  36780-3 0  9999
2 40025  97.9677 229.2519 0012556  21.7608 338.4140 14.91083486451996
NUDT-PHONESAT           
1 40900U 15049B   22291.02213666  .00058654  00000+0  13173-2 0  9998
2 40900  97.3941 310.1318 0007706 185.5354 231.1709 15.43135777393467
ZDPS 2A                 
1 40901U 15049C   22290.79408830  .00016875  00000+0  64273-3 0  9998
2 40901  97.4605 299.1874 0008658 274.2624  85.7625 15.26763352392109
ZDPS 2B                 
1 40902U 15049D   22291.20468844  .00021511  00000+0  80932-3 0  9990
2 40902  97.4686 297.4557 0008462 270.1203 157.4539 15.27119102392143
XW-2A                   
1 40903U 15049E   22291.17093898  .00046195  00000+0  58102-3 0  9999
2 40903  97.1629 350.2054 0008540  33.6869  51.3759 15.59496534398341
KAITUO 1A               
1 40904U 15049F   22291.21936390  .00011992  00000+0  57160-3 0  9998
2 40904  97.4993 292.6686 0011555 308.6803 180.1196 15.19201718391491
2015-049G               
1 40905U 15049G   22291.20817337  .00006142  00000+0  31061-3 0  9990
2 40905  97.5204 289.8798 0013171 312.1225 109.4424 15.17335593391220
XW-2C                   
1 40906U 15049H   22291.21318149  .00009933  00000+0  45805-3 0  9991
2 40906  97.4966 293.7640 0011455 294.3317 196.3774 15.20399230391563
XW-2D                   
1 40907U 15049J   22291.23002376  .00011317  00000+0  50875-3 0  9998
2 40907  97.4962 293.8805 0010606 288.1274 130.4974 15.21248213391627
LILACSAT-2              
1 40908U 15049K   22291.24539558  .00005672  00000+0  29363-3 0  9992
2 40908  97.5218 290.6996 0013676 316.7014  98.2559 15.16539455391095
XW-2E                   
1 40909U 15049L   22291.14072376  .00017689  00000+0  69110-3 0  9997
2 40909  97.4658 298.6293 0009110 261.9478 163.1700 15.25902692392104
XW-2F                   
1 40910U 15049M   22291.24158626  .00017674  00000+0  70154-3 0  9997
2 40910  97.4736 297.8952 0010160 261.5106 157.2606 15.25363979391889
XW-2B                   
1 40911U 15049N   22291.25604703  .00011290  00000+0  50942-3 0  9992
2 40911  97.4939 294.4643 0010595 291.2349  79.8991 15.21119629391519
KAITUO 1B               
1 40912U 15049P   22291.24717972  .00020106  00000+0  71842-3 0  9993
2 40912  97.4351 302.2502 0010660 218.9349 201.9220 15.28813341392499
TIANWANG 1A (TW-1A)     
1 40928U 15051D   22291.17881914  .00135822  00000+0  94145-3 0  9996
2 40928  97.0238 313.6226 0001359 283.5989 144.6723 15.74067857397432
LAPAN-A2                
1 40931U 15052B   22290.81924909  .00001214  00000+0  79517-4 0  9997
2 40931   5.9967  16.0999 0012678  98.9129 261.2455 14.76890560381464
E-ST@R-II               
1 41459U 16025D   22291.03170917  .00025806  00000+0  10430-2 0  9991
2 41459  98.1940 105.5809 0137471 212.4505 146.8183 15.16374053356051
AAUSAT 4                
1 41460U 16025E   22291.14894126  .00044888  00000+0  15160-2 0  9996
2 41460  98.1832 113.1574 0114094 184.0188 270.3577 15.24418136356593
